KSLV-II DUMMY           
1 52895U 22065B   22190.79593785  .00000057  00000+0  22022-4 0  9994
2 52895  98.0221 341.4513 0007902 190.5429 169.5644 14.58137219  2707
KSLV-II R/B             
1 52896U 22065C   22190.39878305  .00000037  00000+0  16362-4 0  9993
2 52896  98.0729 341.2951 0008225  22.5798 337.5765 14.62517277  2642
STEP CUBE LAB-II        
1 52897U 22065D   22190.86690329  .00000383  00000+0  92436-4 0  9994
2 52897  98.0213 341.5120 0008851 195.4883 164.6061 14.58255567  1533
RANDEV                  
1 52898U 22065E   22190.82485741  .00000359  00000+0  87134-4 0  9993
2 52898  98.0221 341.4700 0008085 197.4559 298.9075 14.58324185  1244
SNUGLITE-II             
1 52899U 22065F   22190.82588005  .00000472  00000+0  11145-3 0  9995
2 52899  98.0221 341.4697 0007564 197.1111 299.2652 14.58346346   957
MIMAN                   
1 52900U 22065G   22190.66436473  .00000468  00000+0  11097-3 0  9992
2 52900  98.0222 341.3113 0007688 190.2610 169.8454 14.58175936   551
TIANXING-1              
1 52901U 22066A   22190.82970313  .00142909  97630-5  34785-3 0  9995
2 52901  96.7525 235.3959 0012573 249.6598 226.7410 15.96133634  2825
CMS-02 (GSAT 24)        
1 52903U 22067A   22187.39464419 -.00000265  00000+0  00000+0 0  9998
2 52903   0.0864 267.2542 0003709 238.8388  13.9204  1.00376705   172
MEASAT 3D               
1 52904U 22067B   22190.74689609 -.00000230  00000+0  00000+0 0  9994
2 52904   0.0775 282.1384 0001207 134.2557 231.6554  1.00272265   232
ARIANE 5 DEB [SYLDA]    
1 52905U 22067C   22190.28662116  .00014828  00000+0  53321-2 0  9992
2 52905   6.0640  58.8766 7272133 191.4215 131.9972  2.28625444   376
ARIANE 5 R/B            
1 52906U 22067D   22190.25662192  .00002825  00000+0  80674-3 0  9990
2 52906   6.2219  56.9488 7277567 193.1922 125.1178  2.28701808   384
YAOGAN-35 D             
1 52907U 22068A   22191.05984398  .00004857  00000+0  20274-3 0  9993
2 52907  34.9972 175.5431 0005764  49.1381  16.2267 15.23038880  2580
YAOGAN-35 E             
1 52908U 22068B   22190.68214649  .00005138  00000+0  21417-3 0  9990
2 52908  34.9959 177.8721 0008428  98.2072  69.5362 15.23049190  2498
YAOGAN-35 F             
1 52909U 22068C   22191.12313325 -.00159884  00000+0 -67949-2 0  9991
2 52909  34.9940 175.1382 0007262  59.4004 354.1481 15.22903113  2603
CZ-2D R/B               
1 52910U 22068D   22190.64837977  .00017299  00000+0  68019-3 0  9994
2 52910  34.9934 178.0372 0007558  56.9768 303.1673 15.24786643  2499
CZ-2D DEB               
1 52911U 22068E   22190.64572089  .00010980  00000+0  43090-3 0  9997
2 52911  34.9977 178.0175 0008328  60.8817 299.2811 15.24914825  2497
GAOFEN 12-3             
1 52912U 22069A   22190.85737720  .00000473  00000+0  69039-4 0  9995
2 52912  97.9847  78.4737 0001233 102.5647 257.5709 14.80228714  1817
CZ-4C R/B               
1 52913U 22069B   22190.65094414  .00001737  00000+0  11286-3 0  9994
2 52913  97.9716  78.7271 0073542   5.8217 354.3847 15.07306751  1805
CAPSTONE                
1 52914U 22070A   22184.14236111 -.00000375  00000+0  00000+0 0  9992
2 52914  39.0806 321.8334 8405410 344.4990 285.0037  1.02266752   396
LUNAR PHOTON            
1 52916U 22070C   22184.14236111 -.00000375  00000+0  00000+0 0  9994
2 52916  39.0806 321.8334 8405410 344.4990 285.0037  1.02266752   398
NACHOS-1                
1 52917U 22015D   22190.71978378  .00020280  00000+0  30659-3 0  9995
2 52917  51.6423 224.6270 0008279 355.8884   4.2037 15.54650716  1701
SES-22                  
1 52933U 22071A   22188.28085670  .00000118  00000+0  00000+0 0  9999
2 52933   0.0567 268.5930 0005942 266.8321  68.8066  1.00407723   102
FALCON 9 R/B            
1 52934U 22071B   22189.82994527  .00001127  00000+0  93463-3 0  9991
2 52934  16.5694  63.3737 7252208 185.4524 156.5691  2.28759099   194
DS-EO                   
1 52935U 22072A   22190.76900293  .00001961  00000+0  98307-4 0  9994
2 52935   9.9947   8.9114 0006618  81.9172  27.2028 14.99645933  1360
2022-072B               
1 52936U 22072B   22190.76726422  .00005051  00000+0  33909-3 0  9995
2 52936   9.9923   8.9123 0007641  85.5651  22.6216 14.99927684  1379
2022-072C               
1 52937U 22072C   22190.76516100  .00003251  00000+0  19641-3 0  9993
2 52937   9.9881   8.8953 0008648  91.7905  15.9436 15.00237995  1395
2022-072D               
1 52938U 22072D   22182.10135734  .00002312  00000+0  10000-3 0  9990
2 52938   9.8997  72.2486 0024259 193.5521 166.3691 15.06369760    92
2022-072E               
1 52939U 22072E   22190.74478444  .00003291  00000+0  17725-3 0  9996
2 52939   9.9528   8.6146 0036151  83.7999  17.1950 15.03379100  1394
RECURVE                 
1 52944U 22074A   22190.74042099  .00005526  00000+0  24060-3 0  9990
2 52944  44.9946  77.3172 0003864 288.2356  71.8105 15.23257177  1131
2022-074B               
1 52945U 22074B   22190.93658642  .00005659  00000+0  24528-3 0  9995
2 52945  44.9942  76.2330 0003947 297.1928  62.8573 15.23372958  1165
2022-074C               
1 52946U 22074C   22190.88116991  .00007836  00000+0  23078-3 0  9994
2 52946  44.9937  75.8210 0047450 252.6974 106.8796 15.34537756  1152
SLINGSHOT 1             
1 52947U 22074D   22190.73749334  .00006055  00000+0  25785-3 0  9991
2 52947  44.9850  77.2962 0004521 254.7113 105.3269 15.23865985  1130
2022-074E               
1 52948U 22074E   22190.73518443  .00005362  00000+0  22658-3 0  9993
2 52948  44.9860  77.2693 0005390 244.5053 115.5273 15.24327536  1132
2022-074F               
1 52949U 22074F   22190.73915213  .00010177  00000+0  42921-3 0  9995
2 52949  44.9921  77.2967 0004460 292.7755  67.2667 15.23548282  1138
2022-074G               
1 52950U 22074G   22190.73932306  .00010080  00000+0  42571-3 0  9993
2 52950  45.0014  77.2959 0003395 294.1790  65.8746 15.23513025  1136
2022-074H               
1 52951U 22074H   22190.73944041  .00011946  00000+0  50245-3 0  9992
2 52951  44.9858  77.2967 0003494 301.6216  58.4337 15.23494621  1131
DUMMY CUBESAT           
1 52983U 22065H   22190.94015682  .00001410  00000+0  31661-3 0  9996
2 52983  98.0206 341.5725 0007839 181.3088 178.8091 14.57988131   390
COSMOS 2557 [GLONASS-K] 
1 52984U 22075A   22189.55263997 -.00000035  00000+0  10000-3 0  9994
2 52984  64.8202   4.7771 0003356 270.0930 211.4938  2.12988563    20
FREGAT R/B              
1 52985U 22075B   22189.57943736 -.00000036  00000+0  10000-3 0  9994
2 52985  64.7922   4.7827 0107352  94.8448  31.7745  2.08714417    27
